NORAD_CAT_ID,OBJECT_NAME,OBJECT_TYPE,EPOCH,MEAN_MOTION,ECCENTRICITY,INCLINATION,RA_OF_ASC_NODE,ARG_OF_PERICENTER,MEAN_ANOMALY,BSTAR,MEAN_MOTION_DOT,MEAN_MOTION_DDOT,TLE_LINE0,TLE_LINE1,TLE_LINE2,SEMIMAJOR_AXIS,PERIOD,APOGEE,PERIGEE,DECAYED
52548.0,STARLINK-3931,PAYLOAD,2023-06-17 00:15:02,15.08832702,0.0001387,53.2174,283.386,86.9338,273.1813,2.4513e-05,1.02e-06,0.0,0 STARLINK-3931,1 52548U 22051R   23168.01044982  .00000102  00000-0  24513-4 0  9994,2 52548  53.2174 283.3860 0001387  86.9338 273.1813 15.08832702 61057,6917.903,95.438,540.727,538.808,0.0
52548.0,STARLINK-3931,PAYLOAD,2023-06-17 06:36:35,15.08830554,0.0001808,53.2168,282.196,86.0539,274.066,-2.1154e-06,-3.22e-06,0.0,0 STARLINK-3931,1 52548U 22051R   23168.27541471 -.00000322  00000-0 -21154-5 0  9992,2 52548  53.2168 282.1960 0001808  86.0539 274.0660 15.08830554 61020,6917.909,95.438,541.025,538.524,0.0
52548.0,STARLINK-3931,PAYLOAD,2023-06-17 14:33:31,15.08831981,0.0001661,53.2166,280.7091,99.5251,260.5929,-8.4119e-06,-4.22e-06,0.0,0 STARLINK-3931,1 52548U 22051R   23168.60661424 -.00000422  00000-0 -84119-5 0  9991,2 52548  53.2166 280.7091 0001661  99.5251 260.5929 15.08831981 61072,6917.905,95.438,540.919,538.621,0.0
52548.0,STARLINK-3931,PAYLOAD,2023-06-18 06:27:22,15.08836271,9.16e-05,53.218,277.7386,102.9176,257.1918,4.0415e-05,3.55e-06,0.0,0 STARLINK-3931,1 52548U 22051R   23169.26901304  .00000355  00000-0  40415-4 0  9991,2 52548  53.2180 277.7386 0000916 102.9176 257.1918 15.08836271 61244,6917.892,95.438,540.39,539.123,0.0
52548.0,STARLINK-3931,PAYLOAD,2023-06-18 14:24:17,15.08847123,9.71e-05,53.2183,276.252,100.9751,259.135,-1.271e-05,-4.9e-06,0.0,0 STARLINK-3931,1 52548U 22051R   23169.60020829 -.00000490  00000-0 -12710-4 0  9992,2 52548  53.2183 276.2520 0000971 100.9751 259.1350 15.08847123 61294,6917.859,95.437,540.395,539.052,0.0
52548.0,STARLINK-3931,PAYLOAD,2023-06-19 07:53:33,15.08829856,9.87e-05,53.2188,272.9821,98.216,261.8944,0.00018254,2.618e-05,0.0,0 STARLINK-3931,1 52548U 22051R   23170.32885711  .00002618  00000-0  18254-3 0  9992,2 52548  53.2188 272.9821 0000987  98.2160 261.8944 15.08829856 61401,6917.911,95.438,540.459,539.094,0.0
52548.0,STARLINK-3931,PAYLOAD,2023-06-20 07:44:20,15.0883866,8.05e-05,53.2175,268.5206,91.5311,268.5774,9.3954e-05,1.208e-05,0.0,0 STARLINK-3931,1 52548U 22051R   23171.32245773  .00001208  00000-0  93954-4 0  9996,2 52548  53.2175 268.5206 0000805  91.5311 268.5774 15.08838660 61484,6917.884,95.438,540.306,539.193,0.0
52548.0,STARLINK-3931,PAYLOAD,2023-06-20 15:41:15,15.08850549,8.6e-05,53.2177,267.0328,84.6324,275.4767,0.00012632,1.724e-05,0.0,0 STARLINK-3931,1 52548U 22051R   23171.65364893  .00001724  00000-0  12632-3 0  9993,2 52548  53.2177 267.0328 0000860  84.6324 275.4767 15.08850549 61606,6917.848,95.437,540.308,539.118,0.0
52548.0,STARLINK-3931,PAYLOAD,2023-06-20 23:38:11,15.08844424,8.91e-05,53.2169,265.5449,80.9962,279.1131,7.4291e-05,8.95e-06,0.0,0 STARLINK-3931,1 52548U 22051R   23171.98485331  .00000895  00000-0  74291-4 0  9998,2 52548  53.2169 265.5449 0000891  80.9962 279.1131 15.08844424 61651,6917.867,95.437,540.348,539.115,0.0
52548.0,STARLINK-3931,PAYLOAD,2023-06-21 12:21:15,15.08856152,5.27e-05,53.2167,263.1658,60.5787,299.5257,-5.2698e-05,-1.127e-05,0.0,0 STARLINK-3931,1 52548U 22051R   23172.51476806 -.00001127  00000-0 -52698-4 0  9993,2 52548  53.2167 263.1658 0000527  60.5787 299.5257 15.08856152 61667,6917.831,95.437,540.061,539.331,0.0
52548.0,STARLINK-3931,PAYLOAD,2023-06-22 09:01:17,15.08837953,9.24e-05,53.2169,259.302,87.162,272.9478,2.5533e-05,1.19e-06,0.0,0 STARLINK-3931,1 52548U 22051R   23173.37589737  .00000119  00000-0  25533-4 0  9992,2 52548  53.2169 259.3020 0000924  87.1620 272.9478 15.08837953 61861,6917.887,95.438,540.391,539.112,0.0
52548.0,STARLINK-3931,PAYLOAD,2023-06-22 12:12:03,15.08848068,7.55e-05,53.2165,258.7054,93.7984,266.3095,3.5142e-05,2.72e-06,0.0,0 STARLINK-3931,1 52548U 22051R   23173.50837046  .00000272  00000-0  35142-4 0  9993,2 52548  53.2165 258.7054 0000755  93.7984 266.3095 15.08848068 61888,6917.856,95.437,540.243,539.198,0.0
52548.0,STARLINK-3931,PAYLOAD,2023-06-23 10:27:27,15.08837778,9.45e-05,53.2159,254.5437,73.9846,286.125,4.8566e-05,4.85e-06,0.0,0 STARLINK-3931,1 52548U 22051R   23174.43573853  .00000485  00000-0  48566-4 0  9999,2 52548  53.2159 254.5437 0000945  73.9846 286.1250 15.08837778 62024,6917.887,95.438,540.406,539.098,0.0
52548.0,STARLINK-3931,PAYLOAD,2023-06-24 15:04:23,15.08846835,9.82e-05,53.2168,249.1895,102.6822,257.428,0.00014716,2.055e-05,0.0,0 STARLINK-3931,1 52548U 22051R   23175.62805158  .00002055  00000-0  14716-3 0  9991,2 52548  53.2168 249.1895 0000982 102.6822 257.4280 15.08846835 62205,6917.859,95.437,540.404,539.045,0.0
52548.0,STARLINK-3931,PAYLOAD,2023-06-25 03:47:29,15.08837118,0.0001009,53.2164,246.8125,82.1046,278.006,6.6429e-05,7.7e-06,0.0,0 STARLINK-3931,1 52548U 22051R   23176.15798027  .00000770  00000-0  66429-4 0  9997,2 52548  53.2164 246.8125 0001009  82.1046 278.0060 15.08837118 62289,6917.889,95.438,540.452,539.056,0.0
52548.0,STARLINK-3931,PAYLOAD,2023-06-25 14:55:10,15.0885057,0.0001007,53.2157,244.7312,77.5672,282.5433,0.00023383,3.437e-05,0.0,0 STARLINK-3931,1 52548U 22051R   23176.62165372  .00003437  00000-0  23383-3 0  9994,2 52548  53.2157 244.7312 0001007  77.5672 282.5433 15.08850570 62356,6917.848,95.437,540.41,539.016,0.0
52548.0,STARLINK-3931,PAYLOAD,2023-06-25 21:16:43,15.08839684,8.29e-05,53.2145,243.5405,81.1995,278.9091,1.9813e-05,2.8e-07,0.0,0 STARLINK-3931,1 52548U 22051R   23176.88661680  .00000028  00000-0  19813-4 0  9992,2 52548  53.2145 243.5405 0000829  81.1995 278.9091 15.08839684 62399,6917.881,95.438,540.32,539.173,0.0
52548.0,STARLINK-3931,PAYLOAD,2023-06-27 09:50:36,15.08839264,0.0001005,53.2161,236.703,89.4318,270.679,5.5301e-05,5.92e-06,0.0,0 STARLINK-3931,1 52548U 22051R   23178.41014098  .00000592  00000-0  55301-4 0  9996,2 52548  53.2161 236.7030 0001005  89.4318 270.6790 15.08839264 62627,6917.883,95.438,540.443,539.052,0.0
52548.0,STARLINK-3931,PAYLOAD,2023-06-28 16:02:55,15.08845568,9.81e-05,53.2159,231.0529,82.9668,277.1435,0.00017149,2.443e-05,0.0,0 STARLINK-3931,1 52548U 22051R   23179.66869964  .00002443  00000-0  17149-3 0  9998,2 52548  53.2159 231.0529 0000981  82.9668 277.1435 15.08845568 62816,6917.863,95.437,540.407,539.05,0.0
52548.0,STARLINK-3931,PAYLOAD,2023-06-29 03:10:38,15.08837733,0.0001126,53.2159,228.9713,75.9634,284.1483,9.3296e-05,1.197e-05,0.0,0 STARLINK-3931,1 52548U 22051R   23180.13238531  .00001197  00000-0  93296-4 0  9995,2 52548  53.2159 228.9713 0001126  75.9634 284.1483 15.08837733 62886,6917.887,95.438,540.531,538.973,0.0
52548.0,STARLINK-3931,PAYLOAD,2023-07-01 07:38:21,15.08839768,9.47e-05,53.2151,219.1574,72.7608,287.3488,3.717e-05,3.04e-06,0.0,0 STARLINK-3931,1 52548U 22051R   23182.31830243  .00000304  00000-0  37170-4 0  9993,2 52548  53.2151 219.1574 0000947  72.7608 287.3488 15.08839768 63219,6917.881,95.438,540.401,539.091,0.0
52548.0,STARLINK-3931,PAYLOAD,2023-07-02 09:04:31,15.08839979,9.73e-05,53.2153,214.3997,75.4731,284.6369,1.9259e-05,1.9e-07,0.0,0 STARLINK-3931,1 52548U 22051R   23183.37814422  .00000019  00000-0  19259-4 0  9992,2 52548  53.2153 214.3997 0000973  75.4731 284.6369 15.08839979 63372,6917.88,95.438,540.419,539.072,0.0
52548.0,STARLINK-3931,PAYLOAD,2023-07-03 10:30:41,15.08841274,9.8e-05,53.2151,209.6419,76.5249,283.5852,0.00017819,2.549e-05,0.0,0 STARLINK-3931,1 52548U 22051R   23184.43798550  .00002549  00000-0  17819-3 0  9992,2 52548  53.2151 209.6419 0000980  76.5249 283.5852 15.08841274 63534,6917.876,95.437,540.419,539.064,0.0
52548.0,STARLINK-3931,PAYLOAD,2023-07-04 10:21:29,15.08841305,0.0001007,53.215,205.1814,76.3017,283.8087,8.2268e-05,1.022e-05,0.0,0 STARLINK-3931,1 52548U 22051R   23185.43158582  .00001022  00000-0  82268-4 0  9994,2 52548  53.2150 205.1814 0001007  76.3017 283.8087 15.08841305 63689,6917.876,95.437,540.438,539.045,0.0
52548.0,STARLINK-3931,PAYLOAD,2023-07-05 18:09:12,15.08840277,9.91e-05,53.2162,199.2339,78.8408,281.2696,6.1189e-05,6.86e-06,0.0,0 STARLINK-3931,1 52548U 22051R   23186.75638900  .00000686  00000-0  61189-4 0  9991,2 52548  53.2162 199.2339 0000991  78.8408 281.2696 15.08840277 63886,6917.88,95.438,540.43,539.059,0.0
52548.0,STARLINK-3931,PAYLOAD,2023-07-07 03:32:17,15.08844138,0.0001016,53.2163,192.9892,77.1335,282.977,9.4821e-05,1.222e-05,0.0,0 STARLINK-3931,1 52548U 22051R   23188.14742741  .00001222  00000-0  94821-4 0  9991,2 52548  53.2163 192.9892 0001016  77.1335 282.9770 15.08844138 64096,6917.868,95.437,540.436,539.03,0.0
52548.0,STARLINK-3931,PAYLOAD,2023-07-08 06:33:51,15.08843405,0.0001055,53.2162,187.9338,77.6943,282.4167,0.00011099,1.479e-05,0.0,0 STARLINK-3931,1 52548U 22051R   23189.27350701  .00001479  00000-0  11099-3 0  9996,2 52548  53.2162 187.9338 0001055  77.6943 282.4167 15.08843405 64267,6917.87,95.437,540.465,539.005,0.0
52548.0,STARLINK-3931,PAYLOAD,2023-07-09 03:13:52,15.08840763,0.0001092,53.2161,184.0678,79.7262,280.3854,2.8406e-05,1.64e-06,0.0,0 STARLINK-3931,1 52548U 22051R   23190.13463012  .00000164  00000-0  28406-4 0  9994,2 52548  53.2161 184.0678 0001092  79.7262 280.3854 15.08840763 64397,6917.878,95.438,540.498,538.988,0.0
52548.0,STARLINK-3931,PAYLOAD,2023-07-10 11:01:34,15.08839195,0.0001129,53.2166,178.1209,78.7753,281.3366,3.2435e-05,2.28e-06,0.0,0 STARLINK-3931,1 52548U 22051R   23191.45943117  .00000228  00000-0  32435-4 0  9997,2 52548  53.2166 178.1209 0001129  78.7753 281.3366 15.08839195 64599,6917.883,95.438,540.529,538.967,0.0
52548.0,STARLINK-3931,PAYLOAD,2023-07-11 15:38:31,15.08835148,0.0001153,53.2171,172.7683,77.5244,282.5878,2.425e-05,9.8e-07,0.0,0 STARLINK-3931,1 52548U 22051R   23192.65175692  .00000098  00000-0  24250-4 0  9996,2 52548  53.2171 172.7683 0001153  77.5244 282.5878 15.08835148 64775,6917.895,95.438,540.558,538.963,0.0
